[{"OBJECT_NAME":"FENGYUN 3H","OBJECT_ID":"2025-219A","EPOCH":"2026-03-09T21:29:42.222912","MEAN_MOTION":14.19932737,"ECCENTRICITY":0.00012969,"INCLINATION":98.6685,"RA_OF_ASC_NODE":11.64,"ARG_OF_PERICENTER":61.8301,"MEAN_ANOMALY":298.3007,"EPHEMERIS_TYPE":0,"CLASSIFICATION_TYPE":"U","NORAD_CAT_ID":65815,"ELEMENT_SET_NO":999,"REV_AT_EPOCH":2329,"BSTAR":7.8784575e-5,"MEAN_MOTION_DOT":1.24e-6,"MEAN_MOTION_DDOT":0},{"OBJECT_NAME":"FENGYUN 1C DEB","OBJECT_ID":"1999-025EUP","EPOCH":"2026-03-08T10:47:27.324384","MEAN_MOTION":14.49778743,"ECCENTRICITY":0.01631228,"INCLINATION":98.3929,"RA_OF_ASC_NODE":147.5906,"ARG_OF_PERICENTER":89.0702,"MEAN_ANOMALY":272.9177,"EPHEMERIS_TYPE":0,"CLASSIFICATION_TYPE":"U","NORAD_CAT_ID":38799,"ELEMENT_SET_NO":999,"REV_AT_EPOCH":65280,"BSTAR":0.0015702416,"MEAN_MOTION_DOT":7.135e-5,"MEAN_MOTION_DDOT":0}]
